NORAD_CAT_ID,OBJECT_NAME,OBJECT_TYPE,EPOCH,MEAN_MOTION,ECCENTRICITY,INCLINATION,RA_OF_ASC_NODE,ARG_OF_PERICENTER,MEAN_ANOMALY,BSTAR,MEAN_MOTION_DOT,MEAN_MOTION_DDOT,TLE_LINE0,TLE_LINE1,TLE_LINE2,SEMIMAJOR_AXIS,PERIOD,APOGEE,PERIGEE,DECAYED
53530.0,STARLINK-4482,PAYLOAD,2022-12-26 07:08:08,15.08838643,0.0001739,53.217,283.725,52.27,307.845,-5.7435e-05,-1.202e-05,0.0,0 STARLINK-4482,1 53530U 22101D   22360.29731618 -.00001202  00000-0 -57435-4 0  9997,2 53530  53.2170 283.7250 0001739  52.2700 307.8450 15.08838643 19620,6917.885,95.438,540.953,538.547,0.0
53530.0,STARLINK-4482,PAYLOAD,2022-12-27 00:37:21,15.08846565,0.0001721999999999,53.2168,280.4533,51.3442,308.7704,0.00011688,1.573e-05,0.0,0 STARLINK-4482,1 53530U 22101D   22361.02594691  .00001573  00000-0  11688-3 0  9995,2 53530  53.2168 280.4533 0001722  51.3442 308.7704 15.08846565 19736,6917.86,95.437,540.9169999999998,538.534,0.0
53530.0,STARLINK-4482,PAYLOAD,2022-12-27 11:45:03,15.08854156,0.0001803,53.2169,278.3725,54.4037,305.7123,0.00015712,2.214e-05,0.0,0 STARLINK-4482,1 53530U 22101D   22361.48961982  .00002214  00000-0  15712-3 0  9991,2 53530  53.2169 278.3725 0001803  54.4037 305.7123 15.08854156 19805,6917.837,95.437,540.9490000000002,538.455,0.0
53530.0,STARLINK-4482,PAYLOAD,2022-12-27 18:06:35,15.08848704,0.0001835,53.217,277.1831,56.9605,303.1563,0.00020725,3.013e-05,0.0,0 STARLINK-4482,1 53530U 22101D   22361.75458230  .00003013  00000-0  20725-3 0  9996,2 53530  53.2170 277.1831 0001835  56.9605 303.1563 15.08848704 19841,6917.854,95.437,540.988,538.4490000000002,0.0
53530.0,STARLINK-4482,PAYLOAD,2022-12-27 22:52:45,15.08856919,0.0001825,53.2156,276.2907,56.1351,303.9814,0.00041153,6.271e-05,0.0,0 STARLINK-4482,1 53530U 22101D   22361.95330332  .00006271  00000-0  41153-3 0  9997,2 53530  53.2156 276.2907 0001825  56.1351 303.9814 15.08856919 19875,6917.829000000002,95.436,540.956,538.431,0.0
53530.0,STARLINK-4482,PAYLOAD,2022-12-28 00:28:08,15.08858823,0.0001809,53.2153,275.9934,57.2957,302.8209,0.00037369,5.667e-05,0.0,0 STARLINK-4482,1 53530U 22101D   22362.01954156  .00005667  00000-0  37369-3 0  9993,2 53530  53.2153 275.9934 0001809  57.2957 302.8209 15.08858823 19887,6917.823,95.436,540.939,538.436,0.0
53530.0,STARLINK-4482,PAYLOAD,2022-12-29 03:29:41,15.08824139,0.0001851999999999,53.2152,270.9385,53.6687,306.4476,-0.00045815,-7.569e-05,0.0,0 STARLINK-4482,1 53530U 22101D   22363.14562483 -.00007569  00000-0 -45815-3 0  9996,2 53530  53.2152 270.9385 0001852  53.6687 306.4476 15.08824139 20059,6917.929,95.439,541.075,538.513,0.0
53530.0,STARLINK-4482,PAYLOAD,2022-12-29 11:26:38,15.08814651,0.0001853,53.2149,269.4514,48.6927,311.4225,-0.0003262,-5.472e-05,0.0,0 STARLINK-4482,1 53530U 22101D   22363.47683293 -.00005472  00000-0 -32620-3 0  9996,2 53530  53.2149 269.4514 0001853  48.6927 311.4225 15.08814651 20106,6917.958000000001,95.439,541.105,538.5409999999998,0.0
53530.0,STARLINK-4482,PAYLOAD,2022-12-30 00:09:44,15.08815472,0.0001976999999999,53.2147,267.0735,38.5234,321.5899,-0.00023267,-3.987e-05,0.0,0 STARLINK-4482,1 53530U 22101D   22364.00676550 -.00003987  00000-0 -23267-3 0  9990,2 53530  53.2147 267.0735 0001977  38.5234 321.5899 15.08815472 20188,6917.955,95.439,541.188,538.453,0.0
53530.0,STARLINK-4482,PAYLOAD,2022-12-30 17:38:59,15.08831268,0.0001788,53.2163,263.7969,68.3535,291.7648,0.00045686,6.989e-05,0.0,0 STARLINK-4482,1 53530U 22101D   22364.73540596  .00006989  00000-0  45686-3 0  9992,2 53530  53.2163 263.7969 0001788  68.3535 291.7648 15.08831268 20296,6917.906999999997,95.438,541.009,538.535,0.0
53530.0,STARLINK-4482,PAYLOAD,2022-12-31 03:11:17,15.08857817,0.0001844999999999,53.2155,262.015,60.4995,299.6181,0.00086121,0.00013451,0.0,0 STARLINK-4482,1 53530U 22101D   22365.13284022  .00013451  00000-0  86121-3 0  9997,2 53530  53.2155 262.0150 0001845  60.4995 299.6181 15.08857817 20352,6917.826,95.436,540.967,538.415,0.0
53530.0,STARLINK-4482,PAYLOAD,2023-01-01 03:02:03,15.08854304,0.000188,53.2156,257.556,51.2362,308.8798,-0.00012954,-2.35e-05,0.0,0 STARLINK-4482,1 53530U 22101D   23001.12642477 -.00002350  00000-0 -12954-3 0  9997,2 53530  53.2156 257.5560 0001880  51.2362 308.8798 15.08854304 20504,6917.837,95.437,541.002,538.401,0.0
53530.0,STARLINK-4482,PAYLOAD,2023-01-01 09:23:36,15.08828302,0.0002213,53.2155,256.3658,57.5843,302.5363,0.00052468,8.069e-05,0.0,0 STARLINK-4482,1 53530U 22101D   23001.39139462  .00008069  00000-0  52468-3 0  9996,2 53530  53.2155 256.3658 0002213  57.5843 302.5363 15.08828302 20544,6917.916,95.438,541.312,538.25,0.0
53530.0,STARLINK-4482,PAYLOAD,2023-01-01 17:20:32,15.08824077,0.0001885,53.2157,254.8782,68.8237,291.2956,-0.00021619,-3.726e-05,0.0,0 STARLINK-4482,1 53530U 22101D   23001.72259748 -.00003726  00000-0 -21619-3 0  9994,2 53530  53.2157 254.8782 0001885  68.8237 291.2956 15.08824077 20595,6917.929,95.439,541.0980000000002,538.49,0.0
53530.0,STARLINK-4482,PAYLOAD,2023-01-02 02:52:51,15.08823927,0.0001810999999999,53.2162,253.0958,53.731,306.3849,-4.6798e-05,-1.032e-05,0.0,0 STARLINK-4482,1 53530U 22101D   23002.12004428 -.00001032  00000-0 -46798-4 0  9996,2 53530  53.2162 253.0958 0001811  53.7310 306.3849 15.08823927 20650,6917.93,95.439,541.047,538.5419999999998,0.0
53530.0,STARLINK-4482,PAYLOAD,2023-01-02 09:14:24,15.08826759,0.0001746,53.2157,251.9063,53.7412,306.3741,0.00030189,4.518e-05,0.0,0 STARLINK-4482,1 53530U 22101D   23002.38500733  .00004518  00000-0  30189-3 0  9990,2 53530  53.2157 251.9063 0001746  53.7412 306.3741 15.08826759 20699,6917.920999999999,95.438,540.994,538.578,0.0
53530.0,STARLINK-4482,PAYLOAD,2023-01-02 17:11:20,15.08832969,0.0001717,53.2156,250.4193,53.6886,306.4264,0.00049808,7.646e-05,0.0,0 STARLINK-4482,1 53530U 22101D   23002.71620908  .00007646  00000-0  49808-3 0  9997,2 53530  53.2156 250.4193 0001717  53.6886 306.4264 15.08832969 20745,6917.901999999999,95.438,540.955,538.5790000000002,0.0
53530.0,STARLINK-4482,PAYLOAD,2023-01-03 02:43:39,15.08843798,0.0001732,53.2155,248.6351,53.5732,306.5420000000001,0.00064714,0.00010027,0.0,0 STARLINK-4482,1 53530U 22101D   23003.11364820  .00010027  00000-0  64714-3 0  9990,2 53530  53.2155 248.6351 0001732  53.5732 306.5420 15.08843798 20809,6917.869000000002,95.437,540.932,538.536,0.0
53530.0,STARLINK-4482,PAYLOAD,2023-01-03 09:05:11,15.08853348,0.0001733999999999,53.2154,247.4458,53.7644,306.3508,0.00072347,0.00011249,0.0,0 STARLINK-4482,1 53530U 22101D   23003.37860539  .00011249  00000-0  72347-3 0  9994,2 53530  53.2154 247.4458 0001734  53.7644 306.3508 15.08853348 20840,6917.84,95.437,540.904,538.505,0.0
53530.0,STARLINK-4482,PAYLOAD,2023-01-03 23:23:39,15.08839771,0.0001786,53.2158,244.7696,53.8447,306.271,2.1609e-05,5.6e-07,0.0,0 STARLINK-4482,1 53530U 22101D   23003.97476717  .00000056  00000-0  21609-4 0  9991,2 53530  53.2158 244.7696 0001786  53.8447 306.2710 15.08839771 20935,6917.880999999999,95.438,540.982,538.511,0.0
53530.0,STARLINK-4482,PAYLOAD,2023-01-04 08:55:58,15.08835836,0.0001799,53.2156,242.9857,54.3706,305.7454,-4.247399999999999e-05,-9.64e-06,0.0,0 STARLINK-4482,1 53530U 22101D   23004.37220938 -.00000964  00000-0 -42474-4 0  9991,2 53530  53.2156 242.9857 0001799  54.3706 305.7454 15.08835836 20993,6917.893,95.438,541.003,538.514,0.0
53530.0,STARLINK-4482,PAYLOAD,2023-01-05 00:49:49,15.08852525,0.0001827,53.2152,240.0116,54.5489,305.5673,0.00037878,5.747e-05,0.0,0 STARLINK-4482,1 53530U 22101D   23005.03460463  .00005747  00000-0  37878-3 0  9997,2 53530  53.2152 240.0116 0001827  54.5489 305.5673 15.08852525 21095,6917.842,95.437,540.971,538.443,0.0
53530.0,STARLINK-4482,PAYLOAD,2023-01-05 08:46:45,15.08839757,0.0001797,53.2149,238.525,56.9063,303.2101,0.00013761,1.903e-05,0.0,0 STARLINK-4482,1 53530U 22101D   23005.36580937  .00001903  00000-0  13761-3 0  9997,2 53530  53.2149 238.5250 0001797  56.9063 303.2101 15.08839757 21141,6917.880999999999,95.438,540.989,538.503,0.0
53530.0,STARLINK-4482,PAYLOAD,2023-01-05 15:08:18,15.08833991,0.000242,53.2142,237.3367,63.2866,296.8374,3.6764e-05,2.97e-06,0.0,0 STARLINK-4482,1 53530U 22101D   23005.63077511  .00000297  00000-0  36764-4 0  9990,2 53530  53.2142 237.3367 0002420  63.2866 296.8374 15.08833991 21183,6917.899,95.438,541.438,538.09,0.0
53530.0,STARLINK-4482,PAYLOAD,2023-01-06 18:09:52,15.08848883,0.0001796,53.2139,232.28,62.453,297.6644,0.00070012,0.00010875,0.0,0 STARLINK-4482,1 53530U 22101D   23006.75685597  .00010875  00000-0  70012-3 0  9999,2 53530  53.2139 232.2800 0001796  62.4530 297.6644 15.08848883 21353,6917.853,95.437,540.961,538.476,0.0
53530.0,STARLINK-4482,PAYLOAD,2023-01-07 00:31:24,15.0885823,0.0001818,53.2138,231.0906,62.7183,297.3994,0.00089698,0.00014023,0.0,0 STARLINK-4482,1 53530U 22101D   23007.02181369  .00014023  00000-0  89698-3 0  9997,2 53530  53.2138 231.0906 0001818  62.7183 297.3994 15.08858230 21394,6917.825,95.436,540.947,538.432,0.0
53530.0,STARLINK-4482,PAYLOAD,2023-01-07 14:49:52,15.0885205,0.0002984,53.2098,228.4114,86.8965,273.2369,0.00028027,4.176e-05,0.0,0 STARLINK-4482,1 53530U 22101D   23007.61797411  .00004176  00000-0  28027-3 0  9990,2 53530  53.2098 228.4114 0002984  86.8965 273.2369 15.08852050 21483,6917.844,95.437,541.773,537.644,0.0
53530.0,STARLINK-4482,PAYLOAD,2023-01-08 00:22:11,15.08845069,0.0001873,53.2133,226.6312,57.817,302.3004,0.00016967,2.414e-05,0.0,0 STARLINK-4482,1 53530U 22101D   23008.01541434  .00002414  00000-0  16967-3 0  9990,2 53530  53.2133 226.6312 0001873  57.8170 302.3004 15.08845069 21544,6917.865,95.437,541.026,538.434,0.0
53530.0,STARLINK-4482,PAYLOAD,2023-01-09 00:12:58,15.08841862,0.0001739,53.2142,222.1674,78.6089,281.5098,0.0001315999999999,1.807e-05,0.0,0 STARLINK-4482,1 53530U 22101D   23009.00901484  .00001807  00000-0  13160-3 0  9992,2 53530  53.2142 222.1674 0001739  78.6089 281.5098 15.08841862 21691,6917.875,95.437,540.943,538.5369999999998,0.0
